{
  "type": "FeatureCollection",
  "features": [
    {
      "type": "Feature",
      "properties": {
        "norad_id": 66052,
        "name": "HRC MONOBLOCK CAMERA",
        "group": "stations",
        "lat": 0.5136877208727287,
        "lon": -17.142048387789906,
        "alt_km": 403.9636915640276,
        "timestamp": "2025-12-08T08:58:59.574021+00:00",
        "meta_object_name": "HRC MONOBLOCK CAMERA",
        "meta_object_id": "1998-067XR",
        "meta_epoch": "2025-12-07T18:19:18.655104",
        "meta_mean_motion": 15.53649665,
        "meta_eccentricity": 0.000398,
        "meta_inclination": 51.6286,
        "meta_ra_of_asc_node": 166.3103,
        "meta_arg_of_pericenter": 163.9442,
        "meta_mean_anomaly": 196.1676,
        "meta_ephemeris_type": 0,
        "meta_classification_type": "U",
        "meta_norad_cat_id": 66052,
        "meta_element_set_no": 999,
        "meta_rev_at_epoch": 806,
        "meta_bstar": 0.00070532392,
        "meta_mean_motion_dot": 0.0004568,
        "meta_mean_motion_ddot": 0,
        "tle_line1": "1 66052U 98067XR  25341.76341036  .00045680  00000+0  70532-3 0  9996",
        "tle_line2": "2 66052  51.6286 166.3103 0003980 163.9442 196.1676 15.53649665  8068"
      },
      "geometry": {
        "type": "Point",
        "coordinates": [
          -17.142048387789906,
          0.5136877208727287
        ]
      }
    },
    {
      "type": "Feature",
      "properties": {
        "norad_id": 66174,
        "name": "HTV-X1",
        "group": "stations",
        "lat": 28.926279128418116,
        "lon": -41.873881888049866,
        "alt_km": 414.3035635230126,
        "timestamp": "2025-12-08T08:58:59.574032+00:00",
        "meta_object_name": "HTV-X1",
        "meta_object_id": "2025-241A",
        "meta_epoch": "2025-12-07T21:32:16.385568",
        "meta_mean_motion": 15.49404055,
        "meta_eccentricity": 0.0003425,
        "meta_inclination": 51.6302,
        "meta_ra_of_asc_node": 166.4547,
        "meta_arg_of_pericenter": 217.7386,
        "meta_mean_anomaly": 142.3363,
        "meta_ephemeris_type": 0,
        "meta_classification_type": "U",
        "meta_norad_cat_id": 66174,
        "meta_element_set_no": 999,
        "meta_rev_at_epoch": 51,
        "meta_bstar": 0.00022339025,
        "meta_mean_motion_dot": 0.00012051,
        "meta_mean_motion_ddot": 0,
        "tle_line1": "1 66174U 25241A   25341.89741187  .00012051  00000+0  22339-3 0  9998",
        "tle_line2": "2 66174  51.6302 166.4547 0003425 217.7386 142.3363 15.49404055   519"
      },
      "geometry": {
        "type": "Point",
        "coordinates": [
          -41.873881888049866,
          28.926279128418116
        ]
      }
    },
    {
      "type": "Feature",
      "properties": {
        "norad_id": 66515,
        "name": "SZ-21 MODULE",
        "group": "stations",
        "lat": -33.07461400504404,
        "lon": -4.826398074381954,
        "alt_km": 382.5054432825509,
        "timestamp": "2025-12-08T08:58:59.574042+00:00",
        "meta_object_name": "SZ-21 MODULE",
        "meta_object_id": "2025-246C",
        "meta_epoch": "2025-12-07T20:56:43.117728",
        "meta_mean_motion": 15.62136924,
        "meta_eccentricity": 0.00062043,
        "meta_inclination": 41.4776,
        "meta_ra_of_asc_node": 45.7288,
        "meta_arg_of_pericenter": 233.3043,
        "meta_mean_anomaly": 126.7226,
        "meta_ephemeris_type": 0,
        "meta_classification_type": "U",
        "meta_norad_cat_id": 66515,
        "meta_element_set_no": 999,
        "meta_rev_at_epoch": 368,
        "meta_bstar": 0.00033745404,
        "meta_mean_motion_dot": 0.00030277,
        "meta_mean_motion_ddot": 0,
        "tle_line1": "1 66515U 25246C   25341.87272127  .00030277  00000+0  33745-3 0  9996",
        "tle_line2": "2 66515  41.4776  45.7288 0006204 233.3043 126.7226 15.62136924  3680"
      },
      "geometry": {
        "type": "Point",
        "coordinates": [
          -4.826398074381954,
          -33.07461400504404
        ]
      }
    },
    {
      "type": "Feature",
      "properties": {
        "norad_id": 66645,
        "name": "SHENZHOU-22",
        "group": "stations",
        "lat": 41.41901136532578,
        "lon": 130.62473334955317,
        "alt_km": 384.4172270236013,
        "timestamp": "2025-12-08T08:58:59.574055+00:00",
        "meta_object_name": "SHENZHOU-22",
        "meta_object_id": "2025-272A",
        "meta_epoch": "2025-12-07T23:22:56.643744",
        "meta_mean_motion": 15.58863749,
        "meta_eccentricity": 0.00092535,
        "meta_inclination": 41.4683,
        "meta_ra_of_asc_node": 45.6321,
        "meta_arg_of_pericenter": 352.4121,
        "meta_mean_anomaly": 7.6575,
        "meta_ephemeris_type": 0,
        "meta_classification_type": "U",
        "meta_norad_cat_id": 66645,
        "meta_element_set_no": 999,
        "meta_rev_at_epoch": 26300,
        "meta_bstar": 0.00029193568,
        "meta_mean_motion_dot": 0.00023028,
        "meta_mean_motion_ddot": 0,
        "tle_line1": "1 66645U 25272A   25341.97426671  .00023028  00000+0  29194-3 0  9994",
        "tle_line2": "2 66645  41.4683  45.6321 0009253 352.4121   7.6575 15.58863749263000"
      },
      "geometry": {
        "type": "Point",
        "coordinates": [
          130.62473334955317,
          41.41901136532578
        ]
      }
    },
    {
      "type": "Feature",
      "properties": {
        "norad_id": 66646,
        "name": "CZ-2F R/B",
        "group": "stations",
        "lat": -37.27660122029948,
        "lon": -23.43668553934517,
        "alt_km": 96.47306129127537,
        "timestamp": "2025-12-08T08:58:59.574068+00:00",
        "meta_object_name": "CZ-2F R/B",
        "meta_object_id": "2025-272B",
        "meta_epoch": "2025-12-07T13:00:15.028704",
        "meta_mean_motion": 16.47453798,
        "meta_eccentricity": 0.002214,
        "meta_inclination": 41.4535,
        "meta_ra_of_asc_node": 41.9834,
        "meta_arg_of_pericenter": 229.6731,
        "meta_mean_anomaly": 130.2205,
        "meta_ephemeris_type": 0,
        "meta_classification_type": "U",
        "meta_norad_cat_id": 66646,
        "meta_element_set_no": 999,
        "meta_rev_at_epoch": 200,
        "meta_bstar": 0.00015075,
        "meta_mean_motion_dot": 0.11903621,
        "meta_mean_motion_ddot": 8.0762e-06,
        "tle_line1": "1 66646U 25272B   25341.54184061  .11903621  80762-5  15075-3 0  9992",
        "tle_line2": "2 66646  41.4535  41.9834 0022140 229.6731 130.2205 16.47453798  2009"
      },
      "geometry": {
        "type": "Point",
        "coordinates": [
          -23.43668553934517,
          -37.27660122029948
        ]
      }
    },
    {
      "type": "Feature",
      "properties": {
        "norad_id": 66664,
        "name": "SOYUZ-MS 28",
        "group": "stations",
        "lat": 28.926277031725842,
        "lon": -41.87387947865673,
        "alt_km": 414.3035637448529,
        "timestamp": "2025-12-08T08:58:59.574078+00:00",
        "meta_object_name": "SOYUZ-MS 28",
        "meta_object_id": "2025-275A",
        "meta_epoch": "2025-12-07T21:32:16.385568",
        "meta_mean_motion": 15.49404055,
        "meta_eccentricity": 0.0003425,
        "meta_inclination": 51.6302,
        "meta_ra_of_asc_node": 166.4547,
        "meta_arg_of_pericenter": 217.7386,
        "meta_mean_anomaly": 142.3363,
        "meta_ephemeris_type": 0,
        "meta_classification_type": "U",
        "meta_norad_cat_id": 66664,
        "meta_element_set_no": 999,
        "meta_rev_at_epoch": 128,
        "meta_bstar": 0.00022339025,
        "meta_mean_motion_dot": 0.00012051,
        "meta_mean_motion_ddot": 0,
        "tle_line1": "1 66664U 25275A   25341.89741187  .00012051  00000+0  22339-3 0  9999",
        "tle_line2": "2 66664  51.6302 166.4547 0003425 217.7386 142.3363 15.49404055  1288"
      },
      "geometry": {
        "type": "Point",
        "coordinates": [
          -41.87387947865673,
          28.926277031725842
        ]
      }
    },
    {
      "type": "Feature",
      "properties": {
        "norad_id": 66906,
        "name": "1998-067XS",
        "group": "stations",
        "lat": 17.81008101112009,
        "lon": -30.684689419634754,
        "alt_km": 411.6682326439204,
        "timestamp": "2025-12-08T08:58:59.574089+00:00",
        "meta_object_name": "1998-067XS",
        "meta_object_id": "1998-067XS",
        "meta_epoch": "2025-12-07T18:23:05.277120",
        "meta_mean_motion": 15.50202047,
        "meta_eccentricity": 0.00041027,
        "meta_inclination": 51.6298,
        "meta_ra_of_asc_node": 167.0779,
        "meta_arg_of_pericenter": 180.8323,
        "meta_mean_anomaly": 179.266,
        "meta_ephemeris_type": 0,
        "meta_classification_type": "U",
        "meta_norad_cat_id": 66906,
        "meta_element_set_no": 999,
        "meta_rev_at_epoch": 84,
        "meta_bstar": 0.00058960248,
        "meta_mean_motion_dot": 0.00033584,
        "meta_mean_motion_ddot": 0,
        "tle_line1": "1 66906U 98067XS  25341.76603330  .00033584  00000+0  58960-3 0  9993",
        "tle_line2": "2 66906  51.6298 167.0779 0004102 180.8323 179.2660 15.50202047   848"
      },
      "geometry": {
        "type": "Point",
        "coordinates": [
          -30.684689419634754,
          17.81008101112009
        ]
      }
    }
  ]
}